*******************************************************************************
JPL/HORIZONS                4378 Voigt (1988 JF)           2023-Sep-04 11:28:52
Rec #:    4378 (+COV) Soln.date: 2023-Aug-23_18:09:58   # obs: 3683 (1913-2023)
 
IAU76/J2000 helio. ecliptic osc. elements (au, days, deg., period=Julian yrs):
 
  EPOCH=  2457897.5 ! 2017-May-24.00 (TDB)         Residual RMS= .23122
   EC= .2453034591004048   QR= 2.019767186403453   TP= 2458357.2179646487
   OM= 98.23767914180709   W=  128.536855643469    IN= 10.98729479165867
   A= 2.676264004066984    MA= 256.5091104575611   ADIST= 3.332760821730516
   PER= 4.37826            N= .225118219           ANGMOM= .027281591
   DAN= 2.96897            DDN= 2.18178            L= 227.2921496
   B= 8.5737291            MOID= 1.02972996        TP= 2018-Aug-26.7179646487
 
Asteroid physical parameters (km, seconds, rotational period in hours):
   GM= n.a.                RAD= 5.388              ROTPER= 10.796
   H= 11.89                G= .150                 B-V= n.a.
                           ALBEDO= .351            STYP= n.a.

ASTEROID comments: 
1: soln ref.= JPL#62, OCC=0
2: source=ORB
*******************************************************************************


*******************************************************************************
Ephemeris / API_USER Mon Sep  4 11:28:52 2023 Pasadena, USA      / Horizons
*******************************************************************************
Target body name: 4378 Voigt (1988 JF)            {source: JPL#62}
Center body name: Solar System Barycenter (0)     {source: DE441}
Center-site name: BODY CENTER
*******************************************************************************
Start time      : A.D. 2023-Aug-12 00:00:00.0000 TDB
Stop  time      : A.D. 2023-Aug-13 00:00:00.0000 TDB
Step-size       : 2880 minutes
*******************************************************************************
Center geodetic : 0.0, 0.0, 0.0                   {E-lon(deg),Lat(deg),Alt(km)}
Center cylindric: 0.0, 0.0, 0.0                   {E-lon(deg),Dxy(km),Dz(km)}
Center radii    : (undefined)
Small perturbers: Yes                             {source: SB441-N16}
Output units    : KM-S
Calendar mode   : Mixed Julian/Gregorian
Output type     : GEOMETRIC cartesian states
Output format   : 2 (position and velocity)
Reference frame : Ecliptic of J2000.0
*******************************************************************************
Initial IAU76/J2000 heliocentric ecliptic osculating elements (au, days, deg.):
  EPOCH=  2457897.5 ! 2017-May-24.00 (TDB)         Residual RMS= .23122        
   EC= .2453034591004048   QR= 2.019767186403453   TP= 2458357.2179646487      
   OM= 98.23767914180709   W=  128.536855643469    IN= 10.98729479165867       
  Equivalent ICRF heliocentric cartesian coordinates (au, au/d):
   X=-4.409664539480771E-01  Y= 2.689006051123533E+00  Z= 1.169273542603811E+00
  VX=-8.620353992225709E-03 VY=-3.827301244320309E-03 VZ= 2.494689844005152E-04
Asteroid physical parameters (km, seconds, rotational period in hours):        
   GM= n.a.                RAD= 5.388              ROTPER= 10.796              
   H= 11.89                G= .150                 B-V= n.a.                   
                           ALBEDO= .351            STYP= n.a.                  
*******************************************************************************
JDTDB
   X     Y     Z
   VX    VY    VZ
*******************************************************************************
$$SOE
2460168.500000000 = A.D. 2023-Aug-12 00:00:00.0000 TDB 
 X = 1.699235785837081E+08 Y =-3.063242192998679E+08 Z =-2.436915474641253E+07
 VX= 1.929253569664887E+01 VY= 6.042324056145788E+00 VZ=-3.874270549403906E+00
$$EOE
*******************************************************************************
 
TIME

  Barycentric Dynamical Time ("TDB" or T_eph) output was requested. This
continuous coordinate time is equivalent to the relativistic proper time
of a clock at rest in a reference frame co-moving with the solar system
barycenter but outside the system's gravity well. It is the independent
variable in the solar system relativistic equations of motion.

  TDB runs at a uniform rate of one SI second per second and is independent
of irregularities in Earth's rotation.
 
CALENDAR SYSTEM

  Mixed calendar mode was active such that calendar dates after AD 1582-Oct-15
(if any) are in the modern Gregorian system. Dates prior to 1582-Oct-5 (if any)
are in the Julian calendar system, which is automatically extended for dates
prior to its adoption on 45-Jan-1 BC.  The Julian calendar is useful for
matching historical dates. The Gregorian calendar more accurately corresponds
to the Earth's orbital motion and seasons. A "Gregorian-only" calendar mode is
available if such physical events are the primary interest.

REFERENCE FRAME AND COORDINATES

  Ecliptic at the standard reference epoch

    Reference epoch: J2000.0
    X-Y plane: adopted Earth orbital plane at the reference epoch
               Note: IAU76 obliquity of 84381.448 arcseconds wrt ICRF X-Y plane
    X-axis   : ICRF
    Z-axis   : perpendicular to the X-Y plane in the directional (+ or -) sense
               of Earth's north pole at the reference epoch.

  Symbol meaning:

    JDTDB    Julian Day Number, Barycentric Dynamical Time
      X      X-component of position vector (km)
      Y      Y-component of position vector (km)
      Z      Z-component of position vector (km)
      VX     X-component of velocity vector (km/sec)                           
      VY     Y-component of velocity vector (km/sec)                           
      VZ     Z-component of velocity vector (km/sec)                           

ABERRATIONS AND CORRECTIONS

 Geometric state vectors have NO corrections or aberrations applied.

Computations by ...

    Solar System Dynamics Group, Horizons On-Line Ephemeris System
    4800 Oak Grove Drive, Jet Propulsion Laboratory
    Pasadena, CA  91109   USA

    General site: https://ssd.jpl.nasa.gov/
    Mailing list: https://ssd.jpl.nasa.gov/email_list.html
    System news : https://ssd.jpl.nasa.gov/horizons/news.html
    User Guide  : https://ssd.jpl.nasa.gov/horizons/manual.html
    Connect     : browser        https://ssd.jpl.nasa.gov/horizons/app.html#/x
                  API            https://ssd-api.jpl.nasa.gov/doc/horizons.html
                  command-line   telnet ssd.jpl.nasa.gov 6775
                  e-mail/batch   https://ssd.jpl.nasa.gov/ftp/ssd/hrzn_batch.txt
                  scripts        https://ssd.jpl.nasa.gov/ftp/ssd/SCRIPTS
    Author      : Jon.D.Giorgini@jpl.nasa.gov
*******************************************************************************
